{
    "links": {
        "self": "http://www.neowsapp.com/rest/v1/neo/3612173?api_key=iIulBulltgU6a56xZRHN4H3l9WmuAYTsLGpBGhQ2"
    },
    "id": "3612173",
    "neo_reference_id": "3612173",
    "name": "(2012 TP274)",
    "designation": "2012 TP274",
    "nasa_jpl_url": "http://ssd.jpl.nasa.gov/sbdb.cgi?sstr=3612173",
    "absolute_magnitude_h": 20.0,
    "estimated_diameter": {
        "kilometers": {
            "estimated_diameter_min": 0.2658,
            "estimated_diameter_max": 0.5943468684
        },
        "meters": {
            "estimated_diameter_min": 265.8,
            "estimated_diameter_max": 594.3468684194
        },
        "miles": {
            "estimated_diameter_min": 0.1651604118,
            "estimated_diameter_max": 0.369309908
        },
        "feet": {
            "estimated_diameter_min": 872.047272,
            "estimated_diameter_max": 1949.9569797852
        }
    },
    "is_potentially_hazardous_asteroid": false,
    "close_approach_data": [
        {
            "close_approach_date": "1985-10-09",
            "close_approach_date_full": "1985-Oct-09 17:46",
            "epoch_date_close_approach": 497727960000,
            "relative_velocity": {
                "kilometers_per_second": "20.7897398814",
                "kilometers_per_hour": "74843.0635731451",
                "miles_per_hour": "46504.569140769"
            },
            "miss_distance": {
                "astronomical": "0.3811067355",
                "lunar": "148.2505201095",
                "kilometers": "57012755.873453385",
                "miles": "35426083.770431313"
            },
            "orbiting_body": "Earth"
        },
        {
            "close_approach_date": "2012-10-05",
            "close_approach_date_full": "2012-Oct-05 03:06",
            "epoch_date_close_approach": 1349406360000,
            "relative_velocity": {
                "kilometers_per_second": "18.5500313033",
                "kilometers_per_hour": "66780.1126917245",
                "miles_per_hour": "41494.5650222551"
            },
            "miss_distance": {
                "astronomical": "0.2569859567",
                "lunar": "99.9675371563",
                "kilometers": "38444551.742232229",
                "miles": "23888336.7357296002"
            },
            "orbiting_body": "Earth"
        },
        {
            "close_approach_date": "2035-10-12",
            "close_approach_date_full": "2035-Oct-12 21:06",
            "epoch_date_close_approach": 2075835960000,
            "relative_velocity": {
                "kilometers_per_second": "21.5004941932",
                "kilometers_per_hour": "77401.7790956147",
                "miles_per_hour": "48094.4554608279"
            },
            "miss_distance": {
                "astronomical": "0.3758240127",
                "lunar": "146.1955409403",
                "kilometers": "56222471.794772949",
                "miles": "34935024.0146827362"
            },
            "orbiting_body": "Earth"
        },
        {
            "close_approach_date": "2058-10-13",
            "close_approach_date_full": "2058-Oct-13 05:54",
            "epoch_date_close_approach": 2801714040000,
            "relative_velocity": {
                "kilometers_per_second": "21.8695750759",
                "kilometers_per_hour": "78730.4702730762",
                "miles_per_hour": "48920.0524871789"
            },
            "miss_distance": {
                "astronomical": "0.396673081",
                "lunar": "154.305828509",
                "kilometers": "59341448.00393747",
                "miles": "36873065.962858286"
            },
            "orbiting_body": "Earth"
        }
    ],
    "orbital_data": {
        "orbit_id": "11",
        "orbit_determination_date": "2017-04-06 08:48:31",
        "first_observation_date": "2012-10-15",
        "last_observation_date": "2012-12-05",
        "data_arc_in_days": 51,
        "observations_used": 63,
        "orbit_uncertainty": "6",
        "minimum_orbit_intersection": ".10082",
        "jupiter_tisserand_invariant": "3.166",
        "epoch_osculation": "2459000.5",
        "eccentricity": ".5672836726539219",
        "semi_major_axis": "2.45125304659331",
        "inclination": "22.6904153009249",
        "ascending_node_longitude": "6.301588857709263",
        "orbital_period": "1401.782540796129",
        "perihelion_distance": "1.060697215717742",
        "perihelion_argument": "330.2719385433537",
        "aphelion_distance": "3.841808877468878",
        "perihelion_time": "2458989.661851718484",
        "mean_anomaly": "2.783408458725452",
        "mean_motion": ".2568158680272487",
        "equinox": "J2000",
        "orbit_class": {
            "orbit_class_type": "AMO",
            "orbit_class_description": "Near-Earth asteroid orbits similar to that of 1221 Amor",
            "orbit_class_range": "1.017 AU < q (perihelion) < 1.3 AU"
        }
    },
    "is_sentry_object": false
}